<?xml version="1.0" encoding="UTF-8"?>
<ndm xmlns:xsi="http://www.w3.org/2001/XMLSchema-instance" xsi:noNamespaceSchemaLocation="https://sanaregistry.org/r/ndmxml_unqualified/ndmxml-2.0.0-master-2.0.xsd">
<omm id="CCSDS_OMM_VERS" version="2.0">
<header><CREATION_DATE/><ORIGINATOR/></header><body><segment><metadata><OBJECT_NAME>GLOBALSTAR M094 [+]</OBJECT_NAME><OBJECT_ID>2013-005C</OBJECT_ID><CENTER_NAME>EARTH</CENTER_NAME><REF_FRAME>TEME</REF_FRAME><TIME_SYSTEM>UTC</TIME_SYSTEM><MEAN_ELEMENT_THEORY>SGP4</MEAN_ELEMENT_THEORY></metadata><data><meanElements><EPOCH>2023-11-04T22:32:18.152736</EPOCH><MEAN_MOTION>12.62269438</MEAN_MOTION><ECCENTRICITY>.0001147</ECCENTRICITY><INCLINATION>51.9944</INCLINATION><RA_OF_ASC_NODE>179.2501</RA_OF_ASC_NODE><ARG_OF_PERICENTER>76.2867</ARG_OF_PERICENTER><MEAN_ANOMALY>283.8127</MEAN_ANOMALY></meanElements><tleParameters><EPHEMERIS_TYPE>0</EPHEMERIS_TYPE><CLASSIFICATION_TYPE>U</CLASSIFICATION_TYPE><NORAD_CAT_ID>39074</NORAD_CAT_ID><ELEMENT_SET_NO>999</ELEMENT_SET_NO><REV_AT_EPOCH>49783</REV_AT_EPOCH><BSTAR>.90832E-4</BSTAR><MEAN_MOTION_DOT>-.88E-6</MEAN_MOTION_DOT><MEAN_MOTION_DDOT>0</MEAN_MOTION_DDOT></tleParameters></data></segment></body></omm>
<omm id="CCSDS_OMM_VERS" version="2.0">
<header><CREATION_DATE/><ORIGINATOR/></header><body><segment><metadata><OBJECT_NAME>GLOBALSTAR M096 [+]</OBJECT_NAME><OBJECT_ID>2013-005D</OBJECT_ID><CENTER_NAME>EARTH</CENTER_NAME><REF_FRAME>TEME</REF_FRAME><TIME_SYSTEM>UTC</TIME_SYSTEM><MEAN_ELEMENT_THEORY>SGP4</MEAN_ELEMENT_THEORY></metadata><data><meanElements><EPOCH>2023-11-04T22:51:18.046080</EPOCH><MEAN_MOTION>12.62265693</MEAN_MOTION><ECCENTRICITY>.0001092</ECCENTRICITY><INCLINATION>52.0072</INCLINATION><RA_OF_ASC_NODE>227.2623</RA_OF_ASC_NODE><ARG_OF_PERICENTER>59.9458</ARG_OF_PERICENTER><MEAN_ANOMALY>300.1517</MEAN_ANOMALY></meanElements><tleParameters><EPHEMERIS_TYPE>0</EPHEMERIS_TYPE><CLASSIFICATION_TYPE>U</CLASSIFICATION_TYPE><NORAD_CAT_ID>39075</NORAD_CAT_ID><ELEMENT_SET_NO>999</ELEMENT_SET_NO><REV_AT_EPOCH>49675</REV_AT_EPOCH><BSTAR>.15372E-3</BSTAR><MEAN_MOTION_DOT>-.76E-6</MEAN_MOTION_DOT><MEAN_MOTION_DDOT>0</MEAN_MOTION_DDOT></tleParameters></data></segment></body></omm>
<omm id="CCSDS_OMM_VERS" version="2.0">
<header><CREATION_DATE/><ORIGINATOR/></header><body><segment><metadata><OBJECT_NAME>GLOBALSTAR M078 [+]</OBJECT_NAME><OBJECT_ID>2013-005E</OBJECT_ID><CENTER_NAME>EARTH</CENTER_NAME><REF_FRAME>TEME</REF_FRAME><TIME_SYSTEM>UTC</TIME_SYSTEM><MEAN_ELEMENT_THEORY>SGP4</MEAN_ELEMENT_THEORY></metadata><data><meanElements><EPOCH>2023-11-05T03:55:06.572928</EPOCH><MEAN_MOTION>12.62262854</MEAN_MOTION><ECCENTRICITY>.0000835</ECCENTRICITY><INCLINATION>51.9881</INCLINATION><RA_OF_ASC_NODE>311.9318</RA_OF_ASC_NODE><ARG_OF_PERICENTER>336.2934</ARG_OF_PERICENTER><MEAN_ANOMALY>23.7894</MEAN_ANOMALY></meanElements><tleParameters><EPHEMERIS_TYPE>0</EPHEMERIS_TYPE><CLASSIFICATION_TYPE>U</CLASSIFICATION_TYPE><NORAD_CAT_ID>39076</NORAD_CAT_ID><ELEMENT_SET_NO>999</ELEMENT_SET_NO><REV_AT_EPOCH>49561</REV_AT_EPOCH><BSTAR>.12222E-3</BSTAR><MEAN_MOTION_DOT>-.82E-6</MEAN_MOTION_DOT><MEAN_MOTION_DDOT>0</MEAN_MOTION_DDOT></tleParameters></data></segment></body></omm>
<omm id="CCSDS_OMM_VERS" version="2.0">
<header><CREATION_DATE/><ORIGINATOR/></header><body><segment><metadata><OBJECT_NAME>GLOBALSTAR M095 [+]</OBJECT_NAME><OBJECT_ID>2013-005F</OBJECT_ID><CENTER_NAME>EARTH</CENTER_NAME><REF_FRAME>TEME</REF_FRAME><TIME_SYSTEM>UTC</TIME_SYSTEM><MEAN_ELEMENT_THEORY>SGP4</MEAN_ELEMENT_THEORY></metadata><data><meanElements><EPOCH>2023-11-05T04:33:23.178240</EPOCH><MEAN_MOTION>12.62270376</MEAN_MOTION><ECCENTRICITY>.0000854</ECCENTRICITY><INCLINATION>51.9807</INCLINATION><RA_OF_ASC_NODE>309.3419</RA_OF_ASC_NODE><ARG_OF_PERICENTER>15.1712</ARG_OF_PERICENTER><MEAN_ANOMALY>344.9180</MEAN_ANOMALY></meanElements><tleParameters><EPHEMERIS_TYPE>0</EPHEMERIS_TYPE><CLASSIFICATION_TYPE>U</CLASSIFICATION_TYPE><NORAD_CAT_ID>39077</NORAD_CAT_ID><ELEMENT_SET_NO>999</ELEMENT_SET_NO><REV_AT_EPOCH>49562</REV_AT_EPOCH><BSTAR>.14383E-3</BSTAR><MEAN_MOTION_DOT>-.78E-6</MEAN_MOTION_DOT><MEAN_MOTION_DDOT>0</MEAN_MOTION_DDOT></tleParameters></data></segment></body></omm>
<omm id="CCSDS_OMM_VERS" version="2.0">
<header><CREATION_DATE/><ORIGINATOR/></header><body><segment><metadata><OBJECT_NAME>GLOBALSTAR M087 [+]</OBJECT_NAME><OBJECT_ID>2022-064A</OBJECT_ID><CENTER_NAME>EARTH</CENTER_NAME><REF_FRAME>TEME</REF_FRAME><TIME_SYSTEM>UTC</TIME_SYSTEM><MEAN_ELEMENT_THEORY>SGP4</MEAN_ELEMENT_THEORY></metadata><data><meanElements><EPOCH>2023-11-04T07:04:44.406624</EPOCH><MEAN_MOTION>13.37556806</MEAN_MOTION><ECCENTRICITY>.0009542</ECCENTRICITY><INCLINATION>51.9759</INCLINATION><RA_OF_ASC_NODE>276.0456</RA_OF_ASC_NODE><ARG_OF_PERICENTER>148.0207</ARG_OF_PERICENTER><MEAN_ANOMALY>212.1274</MEAN_ANOMALY></meanElements><tleParameters><EPHEMERIS_TYPE>0</EPHEMERIS_TYPE><CLASSIFICATION_TYPE>U</CLASSIFICATION_TYPE><NORAD_CAT_ID>52888</NORAD_CAT_ID><ELEMENT_SET_NO>999</ELEMENT_SET_NO><REV_AT_EPOCH>6729</REV_AT_EPOCH><BSTAR>.94625E-4</BSTAR><MEAN_MOTION_DOT>-.79E-6</MEAN_MOTION_DOT><MEAN_MOTION_DDOT>0</MEAN_MOTION_DDOT></tleParameters></data></segment></body></omm>
</ndm>
