GLOBALSTAR M094         
1 39074U 13005C   23308.93909899 -.00000088  00000+0  90832-4 0  9996
2 39074  51.9944 179.2501 0001147  76.2867 283.8127 12.62269438497836
GLOBALSTAR M096         
1 39075U 13005D   23308.95229220 -.00000076  00000+0  15372-3 0  9994
2 39075  52.0072 227.2623 0001092  59.9458 300.1517 12.62265693496758
GLOBALSTAR M078         
1 39076U 13005E   23309.16327052 -.00000082  00000+0  12222-3 0  9999
2 39076  51.9881 311.9318 0000835 336.2934  23.7894 12.62262854495617
GLOBALSTAR M095         
1 39077U 13005F   23309.18985160 -.00000078  00000+0  14383-3 0  9997
2 39077  51.9807 309.3419 0000854  15.1712 344.9180 12.62270376495622
GLOBALSTAR M087         
1 52888U 22064A   23308.29495841 -.00000079  00000+0  94625-4 0  9999
2 52888  51.9759 276.0456 0009542 148.0207 212.1274 13.37556806 67298
